SPACEBEE-25             
1 46951U 20085Y   22231.19184561  .00096317  00000+0  15626-2 0  9992
2 46951  97.4314  12.7546 0010264 232.5182 127.5342 15.52356082 97294
SPACEBEE-24             
1 46952U 20085Z   22231.06343134  .00072680  00000+0  13940-2 0  9996
2 46952  97.4318  11.8391 0008543 223.9288 136.1664 15.47707436 97228
SPACEBEE-22             
1 46953U 20085AA  22230.36336105  .00098713  00000+0  15541-2 0  9993
2 46953  97.4278  11.9740 0008743 233.6732 126.3717 15.53199323 97178
SPACEBEE-26             
1 46956U 20085AD  22231.16613896  .00071157  00000+0  13392-2 0  9995
2 46956  97.4300  12.0103 0009436 223.2189 136.8369 15.48251494 97163
SPACEBEENZ-2            
1 46957U 20085AE  22230.61251671  .00032262  00000+0  92699-3 0  9996
2 46957  97.4436   9.7578 0011446 216.9720 143.0735 15.35696987 96989
SPACEBEE-39             
1 46958U 20085AF  22231.18965113  .00063085  00000+0  12600-2 0  9993
2 46958  97.4302  12.3509 0008732 205.9926 154.1069 15.46569050 96565
SPACEBEENZ-1            
1 46959U 20085AG  22230.65837819  .00026779  00000+0  75265-3 0  9992
2 46959  97.4411  10.0069 0011440 218.9658 141.0851 15.36427307 96526
SPACEBEE-23             
1 46960U 20085AH  22230.96557858  .00134839  00000+0  22094-2 0  9998
2 46960  97.4301  12.3920 0009165 229.8328 130.2123 15.51947721 96372
SPACEBEE-52             
1 47425U 21006N   22230.39864292  .00045191  00000+0  16168-2 0  9996
2 47425  97.4401 292.2139 0010541  59.8755 300.3528 15.28595805 87865
SPACEBEE-46             
1 47426U 21006P   22230.13121535  .00030378  00000+0  11799-2 0  9991
2 47426  97.4392 291.3052 0011557  61.5225 298.7176 15.25959185 87781
SPACEBEE-47             
1 47427U 21006Q   22231.09851739  .00032241  00000+0  12648-2 0  9999
2 47427  97.4396 292.1489 0011664  59.2614 300.9771 15.25612648 86960
SPACEBEE-59             
1 47428U 21006R   22230.42397189  .00025621  00000+0  10195-2 0  9999
2 47428  97.4394 291.3764 0011808  63.2188 297.0256 15.25184649 87811
SPACEBEE-62             
1 47429U 21006S   22230.43382575  .00009378  00000+0  45510-3 0  9995
2 47429  97.4351 289.4541 0014116  62.5308 297.7360 15.18610569 86748
SPACEBEE-61             
1 47431U 21006U   22230.43345459  .00020597  00000+0  92884-3 0  9990
2 47431  97.4431 289.2239 0006347  79.0306 281.1643 15.21031745 87659
SPACEBEE-49             
1 47432U 21006V   22230.14704944  .00020136  00000+0  91411-3 0  9991
2 47432  97.4437 288.8758 0006241  79.3867 280.8071 15.20807963 86646
SPACEBEE-60             
1 47433U 21006W   22230.13643905  .00023378  00000+0  10534-2 0  9997
2 47433  97.4436 288.9074 0005909  81.9458 278.2447 15.21034620 87601
SPACEBEE-53             
1 47434U 21006X   22230.59279511  .00025914  00000+0  10989-2 0  9998
2 47434  97.4449 289.8833 0005367  79.5072 280.6769 15.23088619 87706
