[{"OBJECT_NAME":"SPACEBEE-25","OBJECT_ID":"2020-085Y","EPOCH":"2022-08-19T04:36:15.460704","MEAN_MOTION":15.52356082,"ECCENTRICITY":0.0010264,"INCLINATION":97.4314,"RA_OF_ASC_NODE":12.7546,"ARG_OF_PERICENTER":232.5182,"MEAN_ANOMALY":127.5342,"EPHEMERIS_TYPE":0,"CLASSIFICATION_TYPE":"U","NORAD_CAT_ID":46951,"ELEMENT_SET_NO":999,"REV_AT_EPOCH":9729,"BSTAR":0.0015626,"MEAN_MOTION_DOT":0.00096317,"MEAN_MOTION_DDOT":0},{"OBJECT_NAME":"SPACEBEE-24","OBJECT_ID":"2020-085Z","EPOCH":"2022-08-19T01:31:20.467776","MEAN_MOTION":15.47707436,"ECCENTRICITY":0.0008543,"INCLINATION":97.4318,"RA_OF_ASC_NODE":11.8391,"ARG_OF_PERICENTER":223.9288,"MEAN_ANOMALY":136.1664,"EPHEMERIS_TYPE":0,"CLASSIFICATION_TYPE":"U","NORAD_CAT_ID":46952,"ELEMENT_SET_NO":999,"REV_AT_EPOCH":9722,"BSTAR":0.001394,"MEAN_MOTION_DOT":0.0007268,"MEAN_MOTION_DDOT":0},{"OBJECT_NAME":"SPACEBEE-22","OBJECT_ID":"2020-085AA","EPOCH":"2022-08-18T08:43:14.394720","MEAN_MOTION":15.53199323,"ECCENTRICITY":0.0008743,"INCLINATION":97.4278,"RA_OF_ASC_NODE":11.974,"ARG_OF_PERICENTER":233.6732,"MEAN_ANOMALY":126.3717,"EPHEMERIS_TYPE":0,"CLASSIFICATION_TYPE":"U","NORAD_CAT_ID":46953,"ELEMENT_SET_NO":999,"REV_AT_EPOCH":9717,"BSTAR":0.0015541,"MEAN_MOTION_DOT":0.00098713,"MEAN_MOTION_DDOT":0},{"OBJECT_NAME":"SPACEBEE-26","OBJECT_ID":"2020-085AD","EPOCH":"2022-08-19T03:59:14.406144","MEAN_MOTION":15.48251494,"ECCENTRICITY":0.0009436,"INCLINATION":97.43,"RA_OF_ASC_NODE":12.0103,"ARG_OF_PERICENTER":223.2189,"MEAN_ANOMALY":136.8369,"EPHEMERIS_TYPE":0,"CLASSIFICATION_TYPE":"U","NORAD_CAT_ID":46956,"ELEMENT_SET_NO":999,"REV_AT_EPOCH":9716,"BSTAR":0.0013392,"MEAN_MOTION_DOT":0.00071157,"MEAN_MOTION_DDOT":0},{"OBJECT_NAME":"SPACEBEENZ-2","OBJECT_ID":"2020-085AE","EPOCH":"2022-08-18T14:42:01.443744","MEAN_MOTION":15.35696987,"ECCENTRICITY":0.0011446,"INCLINATION":97.4436,"RA_OF_ASC_NODE":9.7578,"ARG_OF_PERICENTER":216.972,"MEAN_ANOMALY":143.0735,"EPHEMERIS_TYPE":0,"CLASSIFICATION_TYPE":"U","NORAD_CAT_ID":46957,"ELEMENT_SET_NO":999,"REV_AT_EPOCH":9698,"BSTAR":0.00092699,"MEAN_MOTION_DOT":0.00032262,"MEAN_MOTION_DDOT":0},{"OBJECT_NAME":"SPACEBEE-39","OBJECT_ID":"2020-085AF","EPOCH":"2022-08-19T04:33:05.857632","MEAN_MOTION":15.4656905,"ECCENTRICITY":0.0008732,"INCLINATION":97.4302,"RA_OF_ASC_NODE":12.3509,"ARG_OF_PERICENTER":205.9926,"MEAN_ANOMALY":154.1069,"EPHEMERIS_TYPE":0,"CLASSIFICATION_TYPE":"U","NORAD_CAT_ID":46958,"ELEMENT_SET_NO":999,"REV_AT_EPOCH":9656,"BSTAR":0.00126,"MEAN_MOTION_DOT":0.00063085,"MEAN_MOTION_DDOT":0},{"OBJECT_NAME":"SPACEBEENZ-1","OBJECT_ID":"2020-085AG","EPOCH":"2022-08-18T15:48:03.875616","MEAN_MOTION":15.36427307,"ECCENTRICITY":0.001144,"INCLINATION":97.4411,"RA_OF_ASC_NODE":10.0069,"ARG_OF_PERICENTER":218.9658,"MEAN_ANOMALY":141.0851,"EPHEMERIS_TYPE":0,"CLASSIFICATION_TYPE":"U","NORAD_CAT_ID":46959,"ELEMENT_SET_NO":999,"REV_AT_EPOCH":9652,"BSTAR":0.00075265,"MEAN_MOTION_DOT":0.00026779,"MEAN_MOTION_DDOT":0},{"OBJECT_NAME":"SPACEBEE-23","OBJECT_ID":"2020-085AH","EPOCH":"2022-08-18T23:10:25.989312","MEAN_MOTION":15.51947721,"ECCENTRICITY":0.0009165,"INCLINATION":97.4301,"RA_OF_ASC_NODE":12.392,"ARG_OF_PERICENTER":229.8328,"MEAN_ANOMALY":130.2123,"EPHEMERIS_TYPE":0,"CLASSIFICATION_TYPE":"U","NORAD_CAT_ID":46960,"ELEMENT_SET_NO":999,"REV_AT_EPOCH":9637,"BSTAR":0.0022094,"MEAN_MOTION_DOT":0.00134839,"MEAN_MOTION_DDOT":0},{"OBJECT_NAME":"SPACEBEE-52","OBJECT_ID":"2021-006N","EPOCH":"2022-08-18T09:34:02.748288","MEAN_MOTION":15.28595805,"ECCENTRICITY":0.0010541,"INCLINATION":97.4401,"RA_OF_ASC_NODE":292.2139,"ARG_OF_PERICENTER":59.8755,"MEAN_ANOMALY":300.3528,"EPHEMERIS_TYPE":0,"CLASSIFICATION_TYPE":"U","NORAD_CAT_ID":47425,"ELEMENT_SET_NO":999,"REV_AT_EPOCH":8786,"BSTAR":0.0016168,"MEAN_MOTION_DOT":0.00045191,"MEAN_MOTION_DDOT":0},{"OBJECT_NAME":"SPACEBEE-46","OBJECT_ID":"2021-006P","EPOCH":"2022-08-18T03:08:57.006240","MEAN_MOTION":15.25959185,"ECCENTRICITY":0.0011557,"INCLINATION":97.4392,"RA_OF_ASC_NODE":291.3052,"ARG_OF_PERICENTER":61.5225,"MEAN_ANOMALY":298.7176,"EPHEMERIS_TYPE":0,"CLASSIFICATION_TYPE":"U","NORAD_CAT_ID":47426,"ELEMENT_SET_NO":999,"REV_AT_EPOCH":8778,"BSTAR":0.0011799,"MEAN_MOTION_DOT":0.00030378,"MEAN_MOTION_DDOT":0},{"OBJECT_NAME":"SPACEBEE-47","OBJECT_ID":"2021-006Q","EPOCH":"2022-08-19T02:21:51.902496","MEAN_MOTION":15.25612648,"ECCENTRICITY":0.0011664,"INCLINATION":97.4396,"RA_OF_ASC_NODE":292.1489,"ARG_OF_PERICENTER":59.2614,"MEAN_ANOMALY":300.9771,"EPHEMERIS_TYPE":0,"CLASSIFICATION_TYPE":"U","NORAD_CAT_ID":47427,"ELEMENT_SET_NO":999,"REV_AT_EPOCH":8696,"BSTAR":0.0012648,"MEAN_MOTION_DOT":0.00032241,"MEAN_MOTION_DDOT":0},{"OBJECT_NAME":"SPACEBEE-59","OBJECT_ID":"2021-006R","EPOCH":"2022-08-18T10:10:31.171296","MEAN_MOTION":15.25184649,"ECCENTRICITY":0.0011808,"INCLINATION":97.4394,"RA_OF_ASC_NODE":291.3764,"ARG_OF_PERICENTER":63.2188,"MEAN_ANOMALY":297.0256,"EPHEMERIS_TYPE":0,"CLASSIFICATION_TYPE":"U","NORAD_CAT_ID":47428,"ELEMENT_SET_NO":999,"REV_AT_EPOCH":8781,"BSTAR":0.0010195,"MEAN_MOTION_DOT":0.00025621,"MEAN_MOTION_DDOT":0},{"OBJECT_NAME":"SPACEBEE-62","OBJECT_ID":"2021-006S","EPOCH":"2022-08-18T10:24:42.544800","MEAN_MOTION":15.18610569,"ECCENTRICITY":0.0014116,"INCLINATION":97.4351,"RA_OF_ASC_NODE":289.4541,"ARG_OF_PERICENTER":62.5308,"MEAN_ANOMALY":297.736,"EPHEMERIS_TYPE":0,"CLASSIFICATION_TYPE":"U","NORAD_CAT_ID":47429,"ELEMENT_SET_NO":999,"REV_AT_EPOCH":8674,"BSTAR":0.0004551,"MEAN_MOTION_DOT":9.378e-5,"MEAN_MOTION_DDOT":0},{"OBJECT_NAME":"SPACEBEE-61","OBJECT_ID":"2021-006U","EPOCH":"2022-08-18T10:24:10.476576","MEAN_MOTION":15.21031745,"ECCENTRICITY":0.0006347,"INCLINATION":97.4431,"RA_OF_ASC_NODE":289.2239,"ARG_OF_PERICENTER":79.0306,"MEAN_ANOMALY":281.1643,"EPHEMERIS_TYPE":0,"CLASSIFICATION_TYPE":"U","NORAD_CAT_ID":47431,"ELEMENT_SET_NO":999,"REV_AT_EPOCH":8765,"BSTAR":0.00092884,"MEAN_MOTION_DOT":0.00020597,"MEAN_MOTION_DDOT":0},{"OBJECT_NAME":"SPACEBEE-49","OBJECT_ID":"2021-006V","EPOCH":"2022-08-18T03:31:45.071616","MEAN_MOTION":15.20807963,"ECCENTRICITY":0.0006241,"INCLINATION":97.4437,"RA_OF_ASC_NODE":288.8758,"ARG_OF_PERICENTER":79.3867,"MEAN_ANOMALY":280.8071,"EPHEMERIS_TYPE":0,"CLASSIFICATION_TYPE":"U","NORAD_CAT_ID":47432,"ELEMENT_SET_NO":999,"REV_AT_EPOCH":8664,"BSTAR":0.00091411,"MEAN_MOTION_DOT":0.00020136,"MEAN_MOTION_DDOT":0},{"OBJECT_NAME":"SPACEBEE-60","OBJECT_ID":"2021-006W","EPOCH":"2022-08-18T03:16:28.333920","MEAN_MOTION":15.2103462,"ECCENTRICITY":0.0005909,"INCLINATION":97.4436,"RA_OF_ASC_NODE":288.9074,"ARG_OF_PERICENTER":81.9458,"MEAN_ANOMALY":278.2447,"EPHEMERIS_TYPE":0,"CLASSIFICATION_TYPE":"U","NORAD_CAT_ID":47433,"ELEMENT_SET_NO":999,"REV_AT_EPOCH":8760,"BSTAR":0.0010534,"MEAN_MOTION_DOT":0.00023378,"MEAN_MOTION_DDOT":0},{"OBJECT_NAME":"SPACEBEE-53","OBJECT_ID":"2021-006X","EPOCH":"2022-08-18T14:13:37.497504","MEAN_MOTION":15.23088619,"ECCENTRICITY":0.0005367,"INCLINATION":97.4449,"RA_OF_ASC_NODE":289.8833,"ARG_OF_PERICENTER":79.5072,"MEAN_ANOMALY":280.6769,"EPHEMERIS_TYPE":0,"CLASSIFICATION_TYPE":"U","NORAD_CAT_ID":47434,"ELEMENT_SET_NO":999,"REV_AT_EPOCH":8770,"BSTAR":0.0010989,"MEAN_MOTION_DOT":0.00025914,"MEAN_MOTION_DDOT":0}]